[{"OBJECT_NAME":"CORIOLIS","OBJECT_ID":"2003-001A","EPOCH":"2026-03-09T23:33:22.818240","MEAN_MOTION":14.19912866,"ECCENTRICITY":0.00147772,"INCLINATION":98.7161,"RA_OF_ASC_NODE":77.3702,"ARG_OF_PERICENTER":135.6934,"MEAN_ANOMALY":224.5428,"EPHEMERIS_TYPE":0,"CLASSIFICATION_TYPE":"U","NORAD_CAT_ID":27640,"ELEMENT_SET_NO":999,"REV_AT_EPOCH":20014,"BSTAR":0.00010579035,"MEAN_MOTION_DOT":1.81e-6,"MEAN_MOTION_DDOT":0},{"OBJECT_NAME":"FENGYUN 1C DEB","OBJECT_ID":"1999-025WE","EPOCH":"2026-03-09T19:42:18.012384","MEAN_MOTION":14.46050841,"ECCENTRICITY":0.01452421,"INCLINATION":98.9476,"RA_OF_ASC_NODE":166.3185,"ARG_OF_PERICENTER":140.9527,"MEAN_ANOMALY":220.2256,"EPHEMERIS_TYPE":0,"CLASSIFICATION_TYPE":"U","NORAD_CAT_ID":30221,"ELEMENT_SET_NO":999,"REV_AT_EPOCH":660,"BSTAR":0.00041833951,"MEAN_MOTION_DOT":1.646e-5,"MEAN_MOTION_DDOT":0}]
